[{"OBJECT_NAME":"STARLINK-30396","OBJECT_ID":"2023-151A","EPOCH":"2026-03-09T04:06:00.336672","MEAN_MOTION":15.26736531,"ECCENTRICITY":0.00015868,"INCLINATION":43.0003,"RA_OF_ASC_NODE":339.234,"ARG_OF_PERICENTER":268.3218,"MEAN_ANOMALY":91.7451,"EPHEMERIS_TYPE":0,"CLASSIFICATION_TYPE":"U","NORAD_CAT_ID":57964,"ELEMENT_SET_NO":999,"REV_AT_EPOCH":13568,"BSTAR":-7.9425836e-5,"MEAN_MOTION_DOT":-2.389e-5,"MEAN_MOTION_DDOT":0},{"OBJECT_NAME":"OBJECT K","OBJECT_ID":"2024-205K","EPOCH":"2026-03-09T22:22:01.331040","MEAN_MOTION":15.27932792,"ECCENTRICITY":0.00106729,"INCLINATION":97.417,"RA_OF_ASC_NODE":146.2172,"ARG_OF_PERICENTER":37.4736,"MEAN_ANOMALY":322.7246,"EPHEMERIS_TYPE":0,"CLASSIFICATION_TYPE":"U","NORAD_CAT_ID":61903,"ELEMENT_SET_NO":999,"REV_AT_EPOCH":7347,"BSTAR":0.00067315144,"MEAN_MOTION_DOT":0.00018331,"MEAN_MOTION_DDOT":0}]
